[{"OBJECT_NAME":"STARLINK-31888","OBJECT_ID":"2024-093G","EPOCH":"2025-09-09T05:04:56.546976","MEAN_MOTION":15.27597247,"ECCENTRICITY":0.00015007,"INCLINATION":43.0025,"RA_OF_ASC_NODE":153.5327,"ARG_OF_PERICENTER":267.6379,"MEAN_ANOMALY":92.4301,"EPHEMERIS_TYPE":0,"CLASSIFICATION_TYPE":"U","NORAD_CAT_ID":59788,"ELEMENT_SET_NO":999,"REV_AT_EPOCH":7494,"BSTAR":2.2305665e-5,"MEAN_MOTION_DOT":3.52e-6,"MEAN_MOTION_DDOT":0},{"OBJECT_NAME":"STARLINK-31863","OBJECT_ID":"2024-093H","EPOCH":"2025-09-09T00:18:47.527776","MEAN_MOTION":15.27578299,"ECCENTRICITY":0.00014685,"INCLINATION":43.0011,"RA_OF_ASC_NODE":154.6244,"ARG_OF_PERICENTER":267.7469,"MEAN_ANOMALY":92.3215,"EPHEMERIS_TYPE":0,"CLASSIFICATION_TYPE":"U","NORAD_CAT_ID":59789,"ELEMENT_SET_NO":999,"REV_AT_EPOCH":7491,"BSTAR":4.321172e-5,"MEAN_MOTION_DOT":9.27e-6,"MEAN_MOTION_DDOT":0},{"OBJECT_NAME":"STARLINK-31873","OBJECT_ID":"2024-093J","EPOCH":"2025-09-09T02:07:43.160736","MEAN_MOTION":15.27640233,"ECCENTRICITY":0.00015793,"INCLINATION":43.0019,"RA_OF_ASC_NODE":154.3323,"ARG_OF_PERICENTER":257.3964,"MEAN_ANOMALY":102.6711,"EPHEMERIS_TYPE":0,"CLASSIFICATION_TYPE":"U","NORAD_CAT_ID":59790,"ELEMENT_SET_NO":999,"REV_AT_EPOCH":7492,"BSTAR":-0.00036202698,"MEAN_MOTION_DOT":-0.00010229,"MEAN_MOTION_DDOT":0},{"OBJECT_NAME":"STARLINK-31865","OBJECT_ID":"2024-093K","EPOCH":"2025-09-09T03:47:28.077504","MEAN_MOTION":15.2759316,"ECCENTRICITY":0.00013174,"INCLINATION":42.9988,"RA_OF_ASC_NODE":153.9916,"ARG_OF_PERICENTER":280.8039,"MEAN_ANOMALY":79.2664,"EPHEMERIS_TYPE":0,"CLASSIFICATION_TYPE":"U","NORAD_CAT_ID":59791,"ELEMENT_SET_NO":999,"REV_AT_EPOCH":7493,"BSTAR":0.00058973814,"MEAN_MOTION_DOT":0.00016008,"MEAN_MOTION_DDOT":0},{"OBJECT_NAME":"STARLINK-31823","OBJECT_ID":"2024-093N","EPOCH":"2025-09-09T02:18:50.043456","MEAN_MOTION":15.27606021,"ECCENTRICITY":0.00015007,"INCLINATION":43.0001,"RA_OF_ASC_NODE":154.3905,"ARG_OF_PERICENTER":270.7849,"MEAN_ANOMALY":89.2831,"EPHEMERIS_TYPE":0,"CLASSIFICATION_TYPE":"U","NORAD_CAT_ID":59794,"ELEMENT_SET_NO":999,"REV_AT_EPOCH":7492,"BSTAR":-0.00014169847,"MEAN_MOTION_DOT":-4.162e-5,"MEAN_MOTION_DDOT":0},{"OBJECT_NAME":"STARLINK-31916","OBJECT_ID":"2024-093P","EPOCH":"2025-09-09T02:24:23.068800","MEAN_MOTION":15.27550479,"ECCENTRICITY":0.00018468,"INCLINATION":43.0021,"RA_OF_ASC_NODE":154.421,"ARG_OF_PERICENTER":287.0841,"MEAN_ANOMALY":72.9808,"EPHEMERIS_TYPE":0,"CLASSIFICATION_TYPE":"U","NORAD_CAT_ID":59795,"ELEMENT_SET_NO":999,"REV_AT_EPOCH":7492,"BSTAR":0.00018853226,"MEAN_MOTION_DOT":4.925e-5,"MEAN_MOTION_DDOT":0},{"OBJECT_NAME":"STARLINK-31907","OBJECT_ID":"2024-093R","EPOCH":"2025-09-09T02:28:08.702400","MEAN_MOTION":15.27545945,"ECCENTRICITY":0.00014196,"INCLINATION":43.0013,"RA_OF_ASC_NODE":154.4418,"ARG_OF_PERICENTER":286.015,"MEAN_ANOMALY":74.0545,"EPHEMERIS_TYPE":0,"CLASSIFICATION_TYPE":"U","NORAD_CAT_ID":59797,"ELEMENT_SET_NO":999,"REV_AT_EPOCH":7492,"BSTAR":-5.4068027e-5,"MEAN_MOTION_DOT":-1.748e-5,"MEAN_MOTION_DDOT":0},{"OBJECT_NAME":"STARLINK-31687","OBJECT_ID":"2024-093S","EPOCH":"2025-09-09T03:05:06.216288","MEAN_MOTION":15.27583413,"ECCENTRICITY":4.026e-5,"INCLINATION":43.0009,"RA_OF_ASC_NODE":154.6285,"ARG_OF_PERICENTER":278.3549,"MEAN_ANOMALY":81.7257,"EPHEMERIS_TYPE":0,"CLASSIFICATION_TYPE":"U","NORAD_CAT_ID":59798,"ELEMENT_SET_NO":999,"REV_AT_EPOCH":7492,"BSTAR":0.00011475644,"MEAN_MOTION_DOT":2.898e-5,"MEAN_MOTION_DDOT":0},{"OBJECT_NAME":"STARLINK-31810","OBJECT_ID":"2024-093T","EPOCH":"2025-09-09T02:44:44.908224","MEAN_MOTION":15.27587346,"ECCENTRICITY":9.296e-5,"INCLINATION":43.002,"RA_OF_ASC_NODE":154.5264,"ARG_OF_PERICENTER":295.6691,"MEAN_ANOMALY":64.4065,"EPHEMERIS_TYPE":0,"CLASSIFICATION_TYPE":"U","NORAD_CAT_ID":59799,"ELEMENT_SET_NO":999,"REV_AT_EPOCH":7492,"BSTAR":3.3674589e-5,"MEAN_MOTION_DOT":6.65e-6,"MEAN_MOTION_DDOT":0},{"OBJECT_NAME":"STARLINK-31812","OBJECT_ID":"2024-093U","EPOCH":"2025-09-09T00:59:30.370272","MEAN_MOTION":15.27574432,"ECCENTRICITY":5.716e-5,"INCLINATION":43.0088,"RA_OF_ASC_NODE":154.8382,"ARG_OF_PERICENTER":2.2612,"MEAN_ANOMALY":357.8243,"EPHEMERIS_TYPE":0,"CLASSIFICATION_TYPE":"U","NORAD_CAT_ID":59800,"ELEMENT_SET_NO":999,"REV_AT_EPOCH":7498,"BSTAR":4.8030257e-5,"MEAN_MOTION_DOT":1.06e-5,"MEAN_MOTION_DDOT":0},{"OBJECT_NAME":"STARLINK-31815","OBJECT_ID":"2024-093V","EPOCH":"2025-09-09T01:05:04.289856","MEAN_MOTION":15.27570026,"ECCENTRICITY":0.00011213,"INCLINATION":43.0004,"RA_OF_ASC_NODE":154.8699,"ARG_OF_PERICENTER":288.6835,"MEAN_ANOMALY":71.3895,"EPHEMERIS_TYPE":0,"CLASSIFICATION_TYPE":"U","NORAD_CAT_ID":59801,"ELEMENT_SET_NO":999,"REV_AT_EPOCH":7491,"BSTAR":1.769223e-6,"MEAN_MOTION_DOT":-2.13e-6,"MEAN_MOTION_DDOT":0},{"OBJECT_NAME":"STARLINK-31814","OBJECT_ID":"2024-093W","EPOCH":"2025-09-09T03:10:39.490464","MEAN_MOTION":15.27569609,"ECCENTRICITY":0.00011879,"INCLINATION":43.0012,"RA_OF_ASC_NODE":154.642,"ARG_OF_PERICENTER":273.6018,"MEAN_ANOMALY":86.4698,"EPHEMERIS_TYPE":0,"CLASSIFICATION_TYPE":"U","NORAD_CAT_ID":59802,"ELEMENT_SET_NO":999,"REV_AT_EPOCH":7492,"BSTAR":0.00010612521,"MEAN_MOTION_DOT":2.658e-5,"MEAN_MOTION_DDOT":0},{"OBJECT_NAME":"STARLINK-31794","OBJECT_ID":"2024-093X","EPOCH":"2025-09-08T11:14:18.948768","MEAN_MOTION":15.27564927,"ECCENTRICITY":0.00025459,"INCLINATION":43.0096,"RA_OF_ASC_NODE":158.276,"ARG_OF_PERICENTER":277.6777,"MEAN_ANOMALY":82.3785,"EPHEMERIS_TYPE":0,"CLASSIFICATION_TYPE":"U","NORAD_CAT_ID":59803,"ELEMENT_SET_NO":999,"REV_AT_EPOCH":7489,"BSTAR":1.3534283e-5,"MEAN_MOTION_DOT":1.1e-6,"MEAN_MOTION_DDOT":0},{"OBJECT_NAME":"STARLINK-31824","OBJECT_ID":"2024-093Y","EPOCH":"2025-09-08T11:08:45.645216","MEAN_MOTION":15.27565355,"ECCENTRICITY":0.00013516,"INCLINATION":42.9995,"RA_OF_ASC_NODE":158.2493,"ARG_OF_PERICENTER":259.8662,"MEAN_ANOMALY":100.2037,"EPHEMERIS_TYPE":0,"CLASSIFICATION_TYPE":"U","NORAD_CAT_ID":59804,"ELEMENT_SET_NO":999,"REV_AT_EPOCH":7482,"BSTAR":-6.0345125e-5,"MEAN_MOTION_DOT":-1.921e-5,"MEAN_MOTION_DDOT":0},{"OBJECT_NAME":"STARLINK-31947","OBJECT_ID":"2024-097A","EPOCH":"2025-09-09T06:29:14.094528","MEAN_MOTION":15.27589051,"ECCENTRICITY":0.00010392,"INCLINATION":43.0005,"RA_OF_ASC_NODE":218.6999,"ARG_OF_PERICENTER":258.6913,"MEAN_ANOMALY":101.3822,"EPHEMERIS_TYPE":0,"CLASSIFICATION_TYPE":"U","NORAD_CAT_ID":59835,"ELEMENT_SET_NO":999,"REV_AT_EPOCH":7417,"BSTAR":0.00052415595,"MEAN_MOTION_DOT":0.00014193,"MEAN_MOTION_DDOT":0},{"OBJECT_NAME":"STARLINK-31929","OBJECT_ID":"2024-097B","EPOCH":"2025-09-09T05:52:24.896640","MEAN_MOTION":15.27595055,"ECCENTRICITY":0.00010871,"INCLINATION":43.0008,"RA_OF_ASC_NODE":219.3656,"ARG_OF_PERICENTER":259.2806,"MEAN_ANOMALY":100.7923,"EPHEMERIS_TYPE":0,"CLASSIFICATION_TYPE":"U","NORAD_CAT_ID":59836,"ELEMENT_SET_NO":999,"REV_AT_EPOCH":7416,"BSTAR":5.3863325e-5,"MEAN_MOTION_DOT":1.221e-5,"MEAN_MOTION_DDOT":0},{"OBJECT_NAME":"STARLINK-31927","OBJECT_ID":"2024-097C","EPOCH":"2025-09-08T23:04:22.100160","MEAN_MOTION":15.27563593,"ECCENTRICITY":0.00017151,"INCLINATION":43.0031,"RA_OF_ASC_NODE":220.684,"ARG_OF_PERICENTER":266.7419,"MEAN_ANOMALY":93.3237,"EPHEMERIS_TYPE":0,"CLASSIFICATION_TYPE":"U","NORAD_CAT_ID":59837,"ELEMENT_SET_NO":999,"REV_AT_EPOCH":7412,"BSTAR":2.8392817e-5,"MEAN_MOTION_DOT":5.19e-6,"MEAN_MOTION_DDOT":0},{"OBJECT_NAME":"STARLINK-31855","OBJECT_ID":"2024-097D","EPOCH":"2025-09-09T06:23:40.045344","MEAN_MOTION":15.2757991,"ECCENTRICITY":0.00012707,"INCLINATION":42.9996,"RA_OF_ASC_NODE":218.659,"ARG_OF_PERICENTER":266.9779,"MEAN_ANOMALY":93.0927,"EPHEMERIS_TYPE":0,"CLASSIFICATION_TYPE":"U","NORAD_CAT_ID":59838,"ELEMENT_SET_NO":999,"REV_AT_EPOCH":7417,"BSTAR":0.00076041705,"MEAN_MOTION_DOT":0.00020722,"MEAN_MOTION_DDOT":0},{"OBJECT_NAME":"STARLINK-31887","OBJECT_ID":"2024-097E","EPOCH":"2025-09-09T05:57:58.402368","MEAN_MOTION":15.27582879,"ECCENTRICITY":7.762e-5,"INCLINATION":43.0006,"RA_OF_ASC_NODE":219.3927,"ARG_OF_PERICENTER":254.7154,"MEAN_ANOMALY":105.3612,"EPHEMERIS_TYPE":0,"CLASSIFICATION_TYPE":"U","NORAD_CAT_ID":59839,"ELEMENT_SET_NO":999,"REV_AT_EPOCH":7416,"BSTAR":0.00011465127,"MEAN_MOTION_DOT":2.895e-5,"MEAN_MOTION_DDOT":0},{"OBJECT_NAME":"STARLINK-31925","OBJECT_ID":"2024-097F","EPOCH":"2025-09-08T14:34:44.801472","MEAN_MOTION":15.30500346,"ECCENTRICITY":0.0001437,"INCLINATION":43,"RA_OF_ASC_NODE":222.3204,"ARG_OF_PERICENTER":190.8352,"MEAN_ANOMALY":169.247,"EPHEMERIS_TYPE":0,"CLASSIFICATION_TYPE":"U","NORAD_CAT_ID":59840,"ELEMENT_SET_NO":999,"REV_AT_EPOCH":7407,"BSTAR":0.00072558005,"MEAN_MOTION_DOT":0.00021638,"MEAN_MOTION_DDOT":0},{"OBJECT_NAME":"STARLINK-31852","OBJECT_ID":"2024-097G","EPOCH":"2025-09-09T05:26:03.758496","MEAN_MOTION":15.2759016,"ECCENTRICITY":0.00013478,"INCLINATION":43.0034,"RA_OF_ASC_NODE":212.3007,"ARG_OF_PERICENTER":271.0699,"MEAN_ANOMALY":88.9999,"EPHEMERIS_TYPE":0,"CLASSIFICATION_TYPE":"U","NORAD_CAT_ID":59841,"ELEMENT_SET_NO":999,"REV_AT_EPOCH":7424,"BSTAR":-2.7247166e-5,"MEAN_MOTION_DOT":-1.012e-5,"MEAN_MOTION_DDOT":0},{"OBJECT_NAME":"STARLINK-31906","OBJECT_ID":"2024-097H","EPOCH":"2025-09-09T05:32:05.057376","MEAN_MOTION":15.27589433,"ECCENTRICITY":0.00010944,"INCLINATION":43.0025,"RA_OF_ASC_NODE":219.2671,"ARG_OF_PERICENTER":281.5942,"MEAN_ANOMALY":78.4787,"EPHEMERIS_TYPE":0,"CLASSIFICATION_TYPE":"U","NORAD_CAT_ID":59842,"ELEMENT_SET_NO":999,"REV_AT_EPOCH":7416,"BSTAR":0.00038579008,"MEAN_MOTION_DOT":0.00010372,"MEAN_MOTION_DDOT":0},{"OBJECT_NAME":"STARLINK-31857","OBJECT_ID":"2024-097J","EPOCH":"2025-09-09T06:14:27.711744","MEAN_MOTION":15.27559632,"ECCENTRICITY":0.00083449,"INCLINATION":43.0023,"RA_OF_ASC_NODE":218.6147,"ARG_OF_PERICENTER":107.3142,"MEAN_ANOMALY":252.8623,"EPHEMERIS_TYPE":0,"CLASSIFICATION_TYPE":"U","NORAD_CAT_ID":59843,"ELEMENT_SET_NO":999,"REV_AT_EPOCH":7417,"BSTAR":7.1291512e-5,"MEAN_MOTION_DOT":1.697e-5,"MEAN_MOTION_DDOT":0}]
